{
  "type": "FeatureCollection",
  "name": "d5_synthetic_buildings",
  "crs": {"type": "name", "properties": {"name": "EPSG:3857"}},
  "features": [
    {
      "type": "Feature",
      "properties": {
        "building_id": "BLDG_SYNTH_001",
        "building_type": "residential",
        "building_height_m": 8.0,
        "roof_area_m2": 900.0,
        "roof_drain_id": "RD_SYNTH_001",
        "swmm_node_id": "J1",
        "blocking_class": "hard_block_candidate",
        "synthetic_fixture": true
      },
      "geometry": {"type": "Polygon", "coordinates": [[[40,40],[70,40],[70,70],[40,70],[40,40]]]}
    },
    {
      "type": "Feature",
      "properties": {
        "building_id": "BLDG_SYNTH_002",
        "building_type": "commercial",
        "building_height_m": 12.0,
        "roof_area_m2": 900.0,
        "roof_drain_id": "RD_SYNTH_002",
        "swmm_node_id": "J2",
        "blocking_class": "hard_block_candidate",
        "synthetic_fixture": true
      },
      "geometry": {"type": "Polygon", "coordinates": [[[120,40],[150,40],[150,70],[120,70],[120,40]]]}
    }
  ]
}
